{
"type": "FeatureCollection",
"name": "alerta_ciudadanos_20250413_215216_zona_minima",
"crs": { "type": "name", "properties": { "name": "urn:ogc:def:crs:OGC:1.3:CRS84" } },
"features": [
{ "type": "Feature", "properties": { }, "geometry": { "type": "Polygon", "coordinates": [ [ [ -76.655972222222218, -11.910972222222224 ], [ -76.65347222222222, -11.910972222222224 ], [ -76.65347222222222, -11.91125 ], [ -76.652361111111105, -11.91125 ], [ -76.652361111111105, -11.911527777777779 ], [ -76.651805555555555, -11.911527777777779 ], [ -76.651805555555555, -11.911805555555556 ], [ -76.65125, -11.911805555555556 ], [ -76.65125, -11.912083333333335 ], [ -76.65069444444444, -11.912083333333335 ], [ -76.65069444444444, -11.912361111111112 ], [ -76.650416666666658, -11.912361111111112 ], [ -76.650416666666658, -11.912638888888891 ], [ -76.649861111111107, -11.912638888888891 ], [ -76.649861111111107, -11.912916666666668 ], [ -76.649583333333325, -11.912916666666668 ], [ -76.649583333333325, -11.913194444444446 ], [ -76.649305555555557, -11.913194444444446 ], [ -76.649305555555557, -11.913472222222223 ], [ -76.649027777777775, -11.913472222222223 ], [ -76.649027777777775, -11.914027777777779 ], [ -76.64875, -11.914027777777779 ], [ -76.64875, -11.914305555555558 ], [ -76.64847222222221, -11.914305555555558 ], [ -76.64847222222221, -11.914861111111112 ], [ -76.648194444444442, -11.914861111111112 ], [ -76.648194444444442, -11.915416666666667 ], [ -76.64791666666666, -11.915416666666667 ], [ -76.64791666666666, -11.915972222222223 ], [ -76.647638888888878, -11.915972222222223 ], [ -76.647638888888878, -11.917083333333334 ], [ -76.64736111111111, -11.917083333333334 ], [ -76.64736111111111, -11.919583333333335 ], [ -76.647638888888878, -11.919583333333335 ], [ -76.647638888888878, -11.920694444444445 ], [ -76.64791666666666, -11.920694444444445 ], [ -76.64791666666666, -11.92125 ], [ -76.648194444444442, -11.92125 ], [ -76.648194444444442, -11.921805555555556 ], [ -76.64847222222221, -11.921805555555556 ], [ -76.64847222222221, -11.922361111111112 ], [ -76.64875, -11.922361111111112 ], [ -76.64875, -11.922638888888891 ], [ -76.649027777777775, -11.922638888888891 ], [ -76.649027777777775, -11.923194444444446 ], [ -76.649305555555557, -11.923194444444446 ], [ -76.649305555555557, -11.923472222222223 ], [ -76.649583333333325, -11.923472222222223 ], [ -76.649583333333325, -11.92375 ], [ -76.649861111111107, -11.92375 ], [ -76.649861111111107, -11.924027777777779 ], [ -76.650416666666658, -11.924027777777779 ], [ -76.650416666666658, -11.924305555555557 ], [ -76.65069444444444, -11.924305555555557 ], [ -76.65069444444444, -11.924583333333334 ], [ -76.65125, -11.924583333333334 ], [ -76.65125, -11.924861111111113 ], [ -76.651805555555555, -11.924861111111113 ], [ -76.651805555555555, -11.92513888888889 ], [ -76.652361111111105, -11.92513888888889 ], [ -76.652361111111105, -11.925416666666669 ], [ -76.65347222222222, -11.925416666666669 ], [ -76.65347222222222, -11.925694444444446 ], [ -76.655972222222218, -11.925694444444446 ], [ -76.655972222222218, -11.925416666666669 ], [ -76.657083333333333, -11.925416666666669 ], [ -76.657083333333333, -11.92513888888889 ], [ -76.657638888888883, -11.92513888888889 ], [ -76.657638888888883, -11.924861111111113 ], [ -76.658194444444433, -11.924861111111113 ], [ -76.658194444444433, -11.924583333333334 ], [ -76.65875, -11.924583333333334 ], [ -76.65875, -11.924305555555557 ], [ -76.65902777777778, -11.924305555555557 ], [ -76.65902777777778, -11.924027777777779 ], [ -76.65958333333333, -11.924027777777779 ], [ -76.65958333333333, -11.92375 ], [ -76.659861111111113, -11.92375 ], [ -76.659861111111113, -11.923472222222223 ], [ -76.660138888888881, -11.923472222222223 ], [ -76.660138888888881, -11.923194444444446 ], [ -76.660416666666663, -11.923194444444446 ], [ -76.660416666666663, -11.922638888888891 ], [ -76.660694444444445, -11.922638888888891 ], [ -76.660694444444445, -11.922361111111112 ], [ -76.660972222222213, -11.922361111111112 ], [ -76.660972222222213, -11.921805555555556 ], [ -76.66125, -11.921805555555556 ], [ -76.66125, -11.92125 ], [ -76.661527777777778, -11.92125 ], [ -76.661527777777778, -11.920694444444445 ], [ -76.661805555555546, -11.920694444444445 ], [ -76.661805555555546, -11.919583333333335 ], [ -76.662083333333328, -11.919583333333335 ], [ -76.662083333333328, -11.917083333333334 ], [ -76.661805555555546, -11.917083333333334 ], [ -76.661805555555546, -11.915972222222223 ], [ -76.661527777777778, -11.915972222222223 ], [ -76.661527777777778, -11.915416666666667 ], [ -76.66125, -11.915416666666667 ], [ -76.66125, -11.914861111111112 ], [ -76.660972222222213, -11.914861111111112 ], [ -76.660972222222213, -11.914305555555558 ], [ -76.660694444444445, -11.914305555555558 ], [ -76.660694444444445, -11.914027777777779 ], [ -76.660416666666663, -11.914027777777779 ], [ -76.660416666666663, -11.913472222222223 ], [ -76.660138888888881, -11.913472222222223 ], [ -76.660138888888881, -11.913194444444446 ], [ -76.659861111111113, -11.913194444444446 ], [ -76.659861111111113, -11.912916666666668 ], [ -76.65958333333333, -11.912916666666668 ], [ -76.65958333333333, -11.912638888888891 ], [ -76.65902777777778, -11.912638888888891 ], [ -76.65902777777778, -11.912361111111112 ], [ -76.65875, -11.912361111111112 ], [ -76.65875, -11.912083333333335 ], [ -76.658194444444433, -11.912083333333335 ], [ -76.658194444444433, -11.911805555555556 ], [ -76.657638888888883, -11.911805555555556 ], [ -76.657638888888883, -11.911527777777779 ], [ -76.657083333333333, -11.911527777777779 ], [ -76.657083333333333, -11.91125 ], [ -76.655972222222218, -11.91125 ], [ -76.655972222222218, -11.910972222222224 ] ] ] } },
{ "type": "Feature", "properties": { }, "geometry": { "type": "Polygon", "coordinates": [ [ [ -76.677916666666661, -11.927083333333334 ], [ -76.675416666666663, -11.927083333333334 ], [ -76.675416666666663, -11.927361111111113 ], [ -76.674305555555549, -11.927361111111113 ], [ -76.674305555555549, -11.92763888888889 ], [ -76.67375, -11.92763888888889 ], [ -76.67375, -11.927916666666668 ], [ -76.673194444444434, -11.927916666666668 ], [ -76.673194444444434, -11.928194444444445 ], [ -76.672638888888883, -11.928194444444445 ], [ -76.672638888888883, -11.928472222222224 ], [ -76.672361111111101, -11.928472222222224 ], [ -76.672361111111101, -11.92875 ], [ -76.671805555555551, -11.92875 ], [ -76.671805555555551, -11.92902777777778 ], [ -76.671527777777769, -11.92902777777778 ], [ -76.671527777777769, -11.929305555555556 ], [ -76.67125, -11.929305555555556 ], [ -76.67125, -11.929583333333335 ], [ -76.670972222222218, -11.929583333333335 ], [ -76.670972222222218, -11.930138888888891 ], [ -76.670694444444436, -11.930138888888891 ], [ -76.670694444444436, -11.930416666666668 ], [ -76.670416666666668, -11.930416666666668 ], [ -76.670416666666668, -11.930972222222223 ], [ -76.670138888888886, -11.930972222222223 ], [ -76.670138888888886, -11.931527777777779 ], [ -76.669861111111103, -11.931527777777779 ], [ -76.669861111111103, -11.932083333333335 ], [ -76.669583333333335, -11.932083333333335 ], [ -76.669583333333335, -11.933194444444446 ], [ -76.669305555555553, -11.933194444444446 ], [ -76.669305555555553, -11.935694444444445 ], [ -76.669583333333335, -11.935694444444445 ], [ -76.669583333333335, -11.936805555555557 ], [ -76.669861111111103, -11.936805555555557 ], [ -76.669861111111103, -11.937361111111112 ], [ -76.670138888888886, -11.937361111111112 ], [ -76.670138888888886, -11.937916666666668 ], [ -76.670416666666668, -11.937916666666668 ], [ -76.670416666666668, -11.938472222222224 ], [ -76.670694444444436, -11.938472222222224 ], [ -76.670694444444436, -11.93875 ], [ -76.670972222222218, -11.93875 ], [ -76.670972222222218, -11.939305555555556 ], [ -76.67125, -11.939305555555556 ], [ -76.67125, -11.939583333333335 ], [ -76.671527777777769, -11.939583333333335 ], [ -76.671527777777769, -11.939861111111112 ], [ -76.671805555555551, -11.939861111111112 ], [ -76.671805555555551, -11.940138888888891 ], [ -76.672361111111101, -11.940138888888891 ], [ -76.672361111111101, -11.940416666666668 ], [ -76.672638888888883, -11.940416666666668 ], [ -76.672638888888883, -11.940694444444446 ], [ -76.673194444444434, -11.940694444444446 ], [ -76.673194444444434, -11.940972222222223 ], [ -76.67375, -11.940972222222223 ], [ -76.67375, -11.94125 ], [ -76.674305555555549, -11.94125 ], [ -76.674305555555549, -11.941527777777779 ], [ -76.675416666666663, -11.941527777777779 ], [ -76.675416666666663, -11.941805555555558 ], [ -76.677916666666661, -11.941805555555558 ], [ -76.677916666666661, -11.941527777777779 ], [ -76.679027777777776, -11.941527777777779 ], [ -76.679027777777776, -11.94125 ], [ -76.679583333333326, -11.94125 ], [ -76.679583333333326, -11.940972222222223 ], [ -76.680138888888891, -11.940972222222223 ], [ -76.680138888888891, -11.940694444444446 ], [ -76.680694444444441, -11.940694444444446 ], [ -76.680694444444441, -11.940416666666668 ], [ -76.680972222222223, -11.940416666666668 ], [ -76.680972222222223, -11.940138888888891 ], [ -76.681527777777774, -11.940138888888891 ], [ -76.681527777777774, -11.939861111111112 ], [ -76.681805555555556, -11.939861111111112 ], [ -76.681805555555556, -11.939583333333335 ], [ -76.682083333333324, -11.939583333333335 ], [ -76.682083333333324, -11.939305555555556 ], [ -76.682361111111106, -11.939305555555556 ], [ -76.682361111111106, -11.93875 ], [ -76.682638888888889, -11.93875 ], [ -76.682638888888889, -11.938472222222224 ], [ -76.682916666666657, -11.938472222222224 ], [ -76.682916666666657, -11.937916666666668 ], [ -76.683194444444439, -11.937916666666668 ], [ -76.683194444444439, -11.937361111111112 ], [ -76.683472222222221, -11.937361111111112 ], [ -76.683472222222221, -11.936805555555557 ], [ -76.68375, -11.936805555555557 ], [ -76.68375, -11.935694444444445 ], [ -76.684027777777771, -11.935694444444445 ], [ -76.684027777777771, -11.933194444444446 ], [ -76.68375, -11.933194444444446 ], [ -76.68375, -11.932083333333335 ], [ -76.683472222222221, -11.932083333333335 ], [ -76.683472222222221, -11.931527777777779 ], [ -76.683194444444439, -11.931527777777779 ], [ -76.683194444444439, -11.930972222222223 ], [ -76.682916666666657, -11.930972222222223 ], [ -76.682916666666657, -11.930416666666668 ], [ -76.682638888888889, -11.930416666666668 ], [ -76.682638888888889, -11.930138888888891 ], [ -76.682361111111106, -11.930138888888891 ], [ -76.682361111111106, -11.929583333333335 ], [ -76.682083333333324, -11.929583333333335 ], [ -76.682083333333324, -11.929305555555556 ], [ -76.681805555555556, -11.929305555555556 ], [ -76.681805555555556, -11.92902777777778 ], [ -76.681527777777774, -11.92902777777778 ], [ -76.681527777777774, -11.92875 ], [ -76.680972222222223, -11.92875 ], [ -76.680972222222223, -11.928472222222224 ], [ -76.680694444444441, -11.928472222222224 ], [ -76.680694444444441, -11.928194444444445 ], [ -76.680138888888891, -11.928194444444445 ], [ -76.680138888888891, -11.927916666666668 ], [ -76.679583333333326, -11.927916666666668 ], [ -76.679583333333326, -11.92763888888889 ], [ -76.679027777777776, -11.92763888888889 ], [ -76.679027777777776, -11.927361111111113 ], [ -76.677916666666661, -11.927361111111113 ], [ -76.677916666666661, -11.927083333333334 ] ] ] } },
{ "type": "Feature", "properties": { }, "geometry": { "type": "Polygon", "coordinates": [ [ [ -76.71375, -11.94125 ], [ -76.71125, -11.94125 ], [ -76.71125, -11.941527777777779 ], [ -76.710138888888878, -11.941527777777779 ], [ -76.710138888888878, -11.941805555555558 ], [ -76.709583333333327, -11.941805555555558 ], [ -76.709583333333327, -11.942083333333334 ], [ -76.709027777777777, -11.942083333333334 ], [ -76.709027777777777, -11.942361111111113 ], [ -76.708472222222213, -11.942361111111113 ], [ -76.708472222222213, -11.94263888888889 ], [ -76.708194444444445, -11.94263888888889 ], [ -76.708194444444445, -11.942916666666669 ], [ -76.70763888888888, -11.942916666666669 ], [ -76.70763888888888, -11.943194444444446 ], [ -76.707361111111112, -11.943194444444446 ], [ -76.707361111111112, -11.943472222222223 ], [ -76.70708333333333, -11.943472222222223 ], [ -76.70708333333333, -11.94375 ], [ -76.706805555555547, -11.94375 ], [ -76.706805555555547, -11.944305555555557 ], [ -76.706527777777779, -11.944305555555557 ], [ -76.706527777777779, -11.944583333333334 ], [ -76.70625, -11.944583333333334 ], [ -76.70625, -11.94513888888889 ], [ -76.705972222222215, -11.94513888888889 ], [ -76.705972222222215, -11.945694444444445 ], [ -76.705694444444433, -11.945694444444445 ], [ -76.705694444444433, -11.94625 ], [ -76.705416666666665, -11.94625 ], [ -76.705416666666665, -11.947361111111112 ], [ -76.705138888888882, -11.947361111111112 ], [ -76.705138888888882, -11.949861111111112 ], [ -76.705416666666665, -11.949861111111112 ], [ -76.705416666666665, -11.950972222222223 ], [ -76.705694444444433, -11.950972222222223 ], [ -76.705694444444433, -11.951527777777779 ], [ -76.705972222222215, -11.951527777777779 ], [ -76.705972222222215, -11.952083333333334 ], [ -76.70625, -11.952083333333334 ], [ -76.70625, -11.95263888888889 ], [ -76.706527777777779, -11.95263888888889 ], [ -76.706527777777779, -11.952916666666669 ], [ -76.706805555555547, -11.952916666666669 ], [ -76.706805555555547, -11.953472222222224 ], [ -76.70708333333333, -11.953472222222224 ], [ -76.70708333333333, -11.95375 ], [ -76.707361111111112, -11.95375 ], [ -76.707361111111112, -11.95402777777778 ], [ -76.70763888888888, -11.95402777777778 ], [ -76.70763888888888, -11.954305555555557 ], [ -76.708194444444445, -11.954305555555557 ], [ -76.708194444444445, -11.954583333333336 ], [ -76.708472222222213, -11.954583333333336 ], [ -76.708472222222213, -11.954861111111112 ], [ -76.709027777777777, -11.954861111111112 ], [ -76.709027777777777, -11.955138888888889 ], [ -76.709583333333327, -11.955138888888889 ], [ -76.709583333333327, -11.955416666666668 ], [ -76.710138888888878, -11.955416666666668 ], [ -76.710138888888878, -11.955694444444445 ], [ -76.71125, -11.955694444444445 ], [ -76.71125, -11.955972222222224 ], [ -76.71375, -11.955972222222224 ], [ -76.71375, -11.955694444444445 ], [ -76.714861111111105, -11.955694444444445 ], [ -76.714861111111105, -11.955416666666668 ], [ -76.715416666666655, -11.955416666666668 ], [ -76.715416666666655, -11.955138888888889 ], [ -76.71597222222222, -11.955138888888889 ], [ -76.71597222222222, -11.954861111111112 ], [ -76.71652777777777, -11.954861111111112 ], [ -76.71652777777777, -11.954583333333336 ], [ -76.716805555555553, -11.954583333333336 ], [ -76.716805555555553, -11.954305555555557 ], [ -76.717361111111103, -11.954305555555557 ], [ -76.717361111111103, -11.95402777777778 ], [ -76.717638888888885, -11.95402777777778 ], [ -76.717638888888885, -11.95375 ], [ -76.717916666666667, -11.95375 ], [ -76.717916666666667, -11.953472222222224 ], [ -76.718194444444435, -11.953472222222224 ], [ -76.718194444444435, -11.952916666666669 ], [ -76.718472222222218, -11.952916666666669 ], [ -76.718472222222218, -11.95263888888889 ], [ -76.71875, -11.95263888888889 ], [ -76.71875, -11.952083333333334 ], [ -76.719027777777768, -11.952083333333334 ], [ -76.719027777777768, -11.951527777777779 ], [ -76.71930555555555, -11.951527777777779 ], [ -76.71930555555555, -11.950972222222223 ], [ -76.719583333333333, -11.950972222222223 ], [ -76.719583333333333, -11.949861111111112 ], [ -76.719861111111101, -11.949861111111112 ], [ -76.719861111111101, -11.947361111111112 ], [ -76.719583333333333, -11.947361111111112 ], [ -76.719583333333333, -11.94625 ], [ -76.71930555555555, -11.94625 ], [ -76.71930555555555, -11.945694444444445 ], [ -76.719027777777768, -11.945694444444445 ], [ -76.719027777777768, -11.94513888888889 ], [ -76.71875, -11.94513888888889 ], [ -76.71875, -11.944583333333334 ], [ -76.718472222222218, -11.944583333333334 ], [ -76.718472222222218, -11.944305555555557 ], [ -76.718194444444435, -11.944305555555557 ], [ -76.718194444444435, -11.94375 ], [ -76.717916666666667, -11.94375 ], [ -76.717916666666667, -11.943472222222223 ], [ -76.717638888888885, -11.943472222222223 ], [ -76.717638888888885, -11.943194444444446 ], [ -76.717361111111103, -11.943194444444446 ], [ -76.717361111111103, -11.942916666666669 ], [ -76.716805555555553, -11.942916666666669 ], [ -76.716805555555553, -11.94263888888889 ], [ -76.71652777777777, -11.94263888888889 ], [ -76.71652777777777, -11.942361111111113 ], [ -76.71597222222222, -11.942361111111113 ], [ -76.71597222222222, -11.942083333333334 ], [ -76.715416666666655, -11.942083333333334 ], [ -76.715416666666655, -11.941805555555558 ], [ -76.714861111111105, -11.941805555555558 ], [ -76.714861111111105, -11.941527777777779 ], [ -76.71375, -11.941527777777779 ], [ -76.71375, -11.94125 ] ] ] } }
]
}
