{
"type": "FeatureCollection",
"name": "alerta_camara_zona_minima",
"crs": { "type": "name", "properties": { "name": "urn:ogc:def:crs:OGC:1.3:CRS84" } },
"features": [
{ "type": "Feature", "properties": { }, "geometry": { "type": "Polygon", "coordinates": [ [ [ -76.69125, -11.917361111111113 ], [ -76.68875, -11.917361111111113 ], [ -76.68875, -11.91763888888889 ], [ -76.687638888888884, -11.91763888888889 ], [ -76.687638888888884, -11.917916666666668 ], [ -76.687083333333334, -11.917916666666668 ], [ -76.687083333333334, -11.918194444444445 ], [ -76.686527777777769, -11.918194444444445 ], [ -76.686527777777769, -11.918472222222224 ], [ -76.685972222222219, -11.918472222222224 ], [ -76.685972222222219, -11.91875 ], [ -76.685694444444437, -11.91875 ], [ -76.685694444444437, -11.91902777777778 ], [ -76.685138888888886, -11.91902777777778 ], [ -76.685138888888886, -11.919305555555557 ], [ -76.684861111111104, -11.919305555555557 ], [ -76.684861111111104, -11.919583333333335 ], [ -76.684583333333322, -11.919583333333335 ], [ -76.684583333333322, -11.919861111111112 ], [ -76.684305555555554, -11.919861111111112 ], [ -76.684305555555554, -11.920416666666668 ], [ -76.684027777777771, -11.920416666666668 ], [ -76.684027777777771, -11.920694444444445 ], [ -76.68375, -11.920694444444445 ], [ -76.68375, -11.92125 ], [ -76.683472222222221, -11.92125 ], [ -76.683472222222221, -11.921805555555556 ], [ -76.683194444444439, -11.921805555555556 ], [ -76.683194444444439, -11.922361111111112 ], [ -76.682916666666657, -11.922361111111112 ], [ -76.682916666666657, -11.923472222222223 ], [ -76.682638888888889, -11.923472222222223 ], [ -76.682638888888889, -11.925972222222224 ], [ -76.682916666666657, -11.925972222222224 ], [ -76.682916666666657, -11.927083333333334 ], [ -76.683194444444439, -11.927083333333334 ], [ -76.683194444444439, -11.92763888888889 ], [ -76.683472222222221, -11.92763888888889 ], [ -76.683472222222221, -11.928194444444445 ], [ -76.68375, -11.928194444444445 ], [ -76.68375, -11.92875 ], [ -76.684027777777771, -11.92875 ], [ -76.684027777777771, -11.92902777777778 ], [ -76.684305555555554, -11.92902777777778 ], [ -76.684305555555554, -11.929583333333335 ], [ -76.684583333333322, -11.929583333333335 ], [ -76.684583333333322, -11.929861111111112 ], [ -76.684861111111104, -11.929861111111112 ], [ -76.684861111111104, -11.930138888888891 ], [ -76.685138888888886, -11.930138888888891 ], [ -76.685138888888886, -11.930416666666668 ], [ -76.685694444444437, -11.930416666666668 ], [ -76.685694444444437, -11.930694444444446 ], [ -76.685972222222219, -11.930694444444446 ], [ -76.685972222222219, -11.930972222222223 ], [ -76.686527777777769, -11.930972222222223 ], [ -76.686527777777769, -11.93125 ], [ -76.687083333333334, -11.93125 ], [ -76.687083333333334, -11.931527777777779 ], [ -76.687638888888884, -11.931527777777779 ], [ -76.687638888888884, -11.931805555555556 ], [ -76.68875, -11.931805555555556 ], [ -76.68875, -11.932083333333335 ], [ -76.69125, -11.932083333333335 ], [ -76.69125, -11.931805555555556 ], [ -76.692361111111111, -11.931805555555556 ], [ -76.692361111111111, -11.931527777777779 ], [ -76.692916666666662, -11.931527777777779 ], [ -76.692916666666662, -11.93125 ], [ -76.693472222222212, -11.93125 ], [ -76.693472222222212, -11.930972222222223 ], [ -76.694027777777777, -11.930972222222223 ], [ -76.694027777777777, -11.930694444444446 ], [ -76.694305555555545, -11.930694444444446 ], [ -76.694305555555545, -11.930416666666668 ], [ -76.694861111111109, -11.930416666666668 ], [ -76.694861111111109, -11.930138888888891 ], [ -76.695138888888877, -11.930138888888891 ], [ -76.695138888888877, -11.929861111111112 ], [ -76.695416666666659, -11.929861111111112 ], [ -76.695416666666659, -11.929583333333335 ], [ -76.695694444444442, -11.929583333333335 ], [ -76.695694444444442, -11.92902777777778 ], [ -76.695972222222224, -11.92902777777778 ], [ -76.695972222222224, -11.92875 ], [ -76.69625, -11.92875 ], [ -76.69625, -11.928194444444445 ], [ -76.696527777777774, -11.928194444444445 ], [ -76.696527777777774, -11.92763888888889 ], [ -76.696805555555557, -11.92763888888889 ], [ -76.696805555555557, -11.927083333333334 ], [ -76.697083333333325, -11.927083333333334 ], [ -76.697083333333325, -11.925972222222224 ], [ -76.697361111111107, -11.925972222222224 ], [ -76.697361111111107, -11.923472222222223 ], [ -76.697083333333325, -11.923472222222223 ], [ -76.697083333333325, -11.922361111111112 ], [ -76.696805555555557, -11.922361111111112 ], [ -76.696805555555557, -11.921805555555556 ], [ -76.696527777777774, -11.921805555555556 ], [ -76.696527777777774, -11.92125 ], [ -76.69625, -11.92125 ], [ -76.69625, -11.920694444444445 ], [ -76.695972222222224, -11.920694444444445 ], [ -76.695972222222224, -11.920416666666668 ], [ -76.695694444444442, -11.920416666666668 ], [ -76.695694444444442, -11.919861111111112 ], [ -76.695416666666659, -11.919861111111112 ], [ -76.695416666666659, -11.919583333333335 ], [ -76.695138888888877, -11.919583333333335 ], [ -76.695138888888877, -11.919305555555557 ], [ -76.694861111111109, -11.919305555555557 ], [ -76.694861111111109, -11.91902777777778 ], [ -76.694305555555545, -11.91902777777778 ], [ -76.694305555555545, -11.91875 ], [ -76.694027777777777, -11.91875 ], [ -76.694027777777777, -11.918472222222224 ], [ -76.693472222222212, -11.918472222222224 ], [ -76.693472222222212, -11.918194444444445 ], [ -76.692916666666662, -11.918194444444445 ], [ -76.692916666666662, -11.917916666666668 ], [ -76.692361111111111, -11.917916666666668 ], [ -76.692361111111111, -11.91763888888889 ], [ -76.69125, -11.91763888888889 ], [ -76.69125, -11.917361111111113 ] ] ] } }
]
}
