{
"type": "FeatureCollection",
"name": "alerta_camara_20250413_215217_zona_maxima",
"crs": { "type": "name", "properties": { "name": "urn:ogc:def:crs:OGC:1.3:CRS84" } },
"features": [
{ "type": "Feature", "properties": { }, "geometry": { "type": "Polygon", "coordinates": [ [ [ -76.690972222222214, -11.922083333333335 ], [ -76.689027777777767, -11.922083333333335 ], [ -76.689027777777767, -11.922361111111112 ], [ -76.688472222222217, -11.922361111111112 ], [ -76.688472222222217, -11.922638888888891 ], [ -76.688194444444434, -11.922638888888891 ], [ -76.688194444444434, -11.922916666666667 ], [ -76.687916666666666, -11.922916666666667 ], [ -76.687916666666666, -11.923194444444446 ], [ -76.687638888888884, -11.923194444444446 ], [ -76.687638888888884, -11.92375 ], [ -76.687361111111102, -11.92375 ], [ -76.687361111111102, -11.925694444444446 ], [ -76.687638888888884, -11.925694444444446 ], [ -76.687638888888884, -11.92625 ], [ -76.687916666666666, -11.92625 ], [ -76.687916666666666, -11.926527777777778 ], [ -76.688194444444434, -11.926527777777778 ], [ -76.688194444444434, -11.926805555555557 ], [ -76.688472222222217, -11.926805555555557 ], [ -76.688472222222217, -11.927083333333334 ], [ -76.689027777777767, -11.927083333333334 ], [ -76.689027777777767, -11.927361111111113 ], [ -76.690972222222214, -11.927361111111113 ], [ -76.690972222222214, -11.927083333333334 ], [ -76.691527777777779, -11.927083333333334 ], [ -76.691527777777779, -11.926805555555557 ], [ -76.691805555555547, -11.926805555555557 ], [ -76.691805555555547, -11.926527777777778 ], [ -76.692083333333329, -11.926527777777778 ], [ -76.692083333333329, -11.92625 ], [ -76.692361111111111, -11.92625 ], [ -76.692361111111111, -11.925694444444446 ], [ -76.692638888888879, -11.925694444444446 ], [ -76.692638888888879, -11.92375 ], [ -76.692361111111111, -11.92375 ], [ -76.692361111111111, -11.923194444444446 ], [ -76.692083333333329, -11.923194444444446 ], [ -76.692083333333329, -11.922916666666667 ], [ -76.691805555555547, -11.922916666666667 ], [ -76.691805555555547, -11.922638888888891 ], [ -76.691527777777779, -11.922638888888891 ], [ -76.691527777777779, -11.922361111111112 ], [ -76.690972222222214, -11.922361111111112 ], [ -76.690972222222214, -11.922083333333335 ] ] ] } }
]
}
