{
"type": "FeatureCollection",
"name": "alerta_ciudadanos_zona_maxima",
"crs": { "type": "name", "properties": { "name": "urn:ogc:def:crs:OGC:1.3:CRS84" } },
"features": [
{ "type": "Feature", "properties": { }, "geometry": { "type": "Polygon", "coordinates": [ [ [ -76.655694444444435, -11.915694444444446 ], [ -76.65375, -11.915694444444446 ], [ -76.65375, -11.915972222222223 ], [ -76.653194444444438, -11.915972222222223 ], [ -76.653194444444438, -11.91625 ], [ -76.652916666666655, -11.91625 ], [ -76.652916666666655, -11.916527777777778 ], [ -76.652638888888887, -11.916527777777778 ], [ -76.652638888888887, -11.916805555555557 ], [ -76.652361111111105, -11.916805555555557 ], [ -76.652361111111105, -11.917361111111113 ], [ -76.652083333333323, -11.917361111111113 ], [ -76.652083333333323, -11.919305555555557 ], [ -76.652361111111105, -11.919305555555557 ], [ -76.652361111111105, -11.919861111111112 ], [ -76.652638888888887, -11.919861111111112 ], [ -76.652638888888887, -11.920138888888889 ], [ -76.652916666666655, -11.920138888888889 ], [ -76.652916666666655, -11.920416666666668 ], [ -76.653194444444438, -11.920416666666668 ], [ -76.653194444444438, -11.920694444444445 ], [ -76.65375, -11.920694444444445 ], [ -76.65375, -11.920972222222224 ], [ -76.655694444444435, -11.920972222222224 ], [ -76.655694444444435, -11.920694444444445 ], [ -76.65625, -11.920694444444445 ], [ -76.65625, -11.920416666666668 ], [ -76.656527777777768, -11.920416666666668 ], [ -76.656527777777768, -11.920138888888889 ], [ -76.65680555555555, -11.920138888888889 ], [ -76.65680555555555, -11.919861111111112 ], [ -76.657083333333333, -11.919861111111112 ], [ -76.657083333333333, -11.919305555555557 ], [ -76.657361111111101, -11.919305555555557 ], [ -76.657361111111101, -11.917361111111113 ], [ -76.657083333333333, -11.917361111111113 ], [ -76.657083333333333, -11.916805555555557 ], [ -76.65680555555555, -11.916805555555557 ], [ -76.65680555555555, -11.916527777777778 ], [ -76.656527777777768, -11.916527777777778 ], [ -76.656527777777768, -11.91625 ], [ -76.65625, -11.91625 ], [ -76.65625, -11.915972222222223 ], [ -76.655694444444435, -11.915972222222223 ], [ -76.655694444444435, -11.915694444444446 ] ] ] } },
{ "type": "Feature", "properties": { }, "geometry": { "type": "Polygon", "coordinates": [ [ [ -76.677638888888879, -11.931805555555556 ], [ -76.675694444444446, -11.931805555555556 ], [ -76.675694444444446, -11.932083333333335 ], [ -76.675138888888881, -11.932083333333335 ], [ -76.675138888888881, -11.932361111111112 ], [ -76.674861111111113, -11.932361111111112 ], [ -76.674861111111113, -11.93263888888889 ], [ -76.674583333333331, -11.93263888888889 ], [ -76.674583333333331, -11.932916666666667 ], [ -76.674305555555549, -11.932916666666667 ], [ -76.674305555555549, -11.933472222222223 ], [ -76.674027777777766, -11.933472222222223 ], [ -76.674027777777766, -11.935416666666669 ], [ -76.674305555555549, -11.935416666666669 ], [ -76.674305555555549, -11.935972222222224 ], [ -76.674583333333331, -11.935972222222224 ], [ -76.674583333333331, -11.93625 ], [ -76.674861111111113, -11.93625 ], [ -76.674861111111113, -11.93652777777778 ], [ -76.675138888888881, -11.93652777777778 ], [ -76.675138888888881, -11.936805555555557 ], [ -76.675694444444446, -11.936805555555557 ], [ -76.675694444444446, -11.937083333333334 ], [ -76.677638888888879, -11.937083333333334 ], [ -76.677638888888879, -11.936805555555557 ], [ -76.678194444444443, -11.936805555555557 ], [ -76.678194444444443, -11.93652777777778 ], [ -76.678472222222211, -11.93652777777778 ], [ -76.678472222222211, -11.93625 ], [ -76.67875, -11.93625 ], [ -76.67875, -11.935972222222224 ], [ -76.679027777777776, -11.935972222222224 ], [ -76.679027777777776, -11.935416666666669 ], [ -76.679305555555544, -11.935416666666669 ], [ -76.679305555555544, -11.933472222222223 ], [ -76.679027777777776, -11.933472222222223 ], [ -76.679027777777776, -11.932916666666667 ], [ -76.67875, -11.932916666666667 ], [ -76.67875, -11.93263888888889 ], [ -76.678472222222211, -11.93263888888889 ], [ -76.678472222222211, -11.932361111111112 ], [ -76.678194444444443, -11.932361111111112 ], [ -76.678194444444443, -11.932083333333335 ], [ -76.677638888888879, -11.932083333333335 ], [ -76.677638888888879, -11.931805555555556 ] ] ] } },
{ "type": "Feature", "properties": { }, "geometry": { "type": "Polygon", "coordinates": [ [ [ -76.713472222222222, -11.945972222222224 ], [ -76.711527777777775, -11.945972222222224 ], [ -76.711527777777775, -11.94625 ], [ -76.71097222222221, -11.94625 ], [ -76.71097222222221, -11.94652777777778 ], [ -76.710694444444442, -11.94652777777778 ], [ -76.710694444444442, -11.946805555555557 ], [ -76.71041666666666, -11.946805555555557 ], [ -76.71041666666666, -11.947083333333335 ], [ -76.710138888888878, -11.947083333333335 ], [ -76.710138888888878, -11.947638888888891 ], [ -76.70986111111111, -11.947638888888891 ], [ -76.70986111111111, -11.949583333333335 ], [ -76.710138888888878, -11.949583333333335 ], [ -76.710138888888878, -11.95013888888889 ], [ -76.71041666666666, -11.95013888888889 ], [ -76.71041666666666, -11.950416666666667 ], [ -76.710694444444442, -11.950416666666667 ], [ -76.710694444444442, -11.950694444444446 ], [ -76.71097222222221, -11.950694444444446 ], [ -76.71097222222221, -11.950972222222223 ], [ -76.711527777777775, -11.950972222222223 ], [ -76.711527777777775, -11.95125 ], [ -76.713472222222222, -11.95125 ], [ -76.713472222222222, -11.950972222222223 ], [ -76.714027777777773, -11.950972222222223 ], [ -76.714027777777773, -11.950694444444446 ], [ -76.714305555555555, -11.950694444444446 ], [ -76.714305555555555, -11.950416666666667 ], [ -76.714583333333323, -11.950416666666667 ], [ -76.714583333333323, -11.95013888888889 ], [ -76.714861111111105, -11.95013888888889 ], [ -76.714861111111105, -11.949583333333335 ], [ -76.715138888888887, -11.949583333333335 ], [ -76.715138888888887, -11.947638888888891 ], [ -76.714861111111105, -11.947638888888891 ], [ -76.714861111111105, -11.947083333333335 ], [ -76.714583333333323, -11.947083333333335 ], [ -76.714583333333323, -11.946805555555557 ], [ -76.714305555555555, -11.946805555555557 ], [ -76.714305555555555, -11.94652777777778 ], [ -76.714027777777773, -11.94652777777778 ], [ -76.714027777777773, -11.94625 ], [ -76.713472222222222, -11.94625 ], [ -76.713472222222222, -11.945972222222224 ] ] ] } }
]
}
